{"type": "FeatureCollection", "features": [ {"type": "Feature", "properties": {"norad_id": 66406, "name": "STARLINK-34840", "group": "last-30-days", "lat": 42.43538235529786, "lon": -33.070963293996016, "alt_km": 412.19186550390987, "timestamp": "2025-12-08T13:49:30.575398+00:00", "meta": {"OBJECT_NAME": "STARLINK-34840", "OBJECT_ID": "2025-257AC", "EPOCH": "2025-12-08T07:23:08.037888", "MEAN_MOTION": 15.49336603, "ECCENTRICITY": 0.00013124, "INCLINATION": 53.1589, "RA_OF_ASC_NODE": 284.9402, "ARG_OF_PERICENTER": 91.3022, "MEAN_ANOMALY": 268.8138, "EPHEMERIS_TYPE": 0, "CLASSIFICATION_TYPE": "U", "NORAD_CAT_ID": 66406, "ELEMENT_SET_NO": 999, "REV_AT_EPOCH": 563, "BSTAR": 0.0015176046, "MEAN_MOTION_DOT": 0.0008496, "MEAN_MOTION_DDOT": 0}, "tle": {"line1": "1 66406U 25257AC  25342.30773192  .00084960  00000+0  15176-2 0  9999", "line2": "2 66406  53.1589 284.9402 0001312  91.3022 268.8138 15.49336603  5638"}}, "geometry": {"type": "Point", "coordinates": [-33.070963293996016, 42.43538235529786]}}, {"type": "Feature", "properties": {"norad_id": 66407, "name": "STARLINK-35686", "group": "last-30-days", "lat": 33.41448005151606, "lon": -46.670339475221056, "alt_km": 411.2731309733699, "timestamp": "2025-12-08T13:49:30.575409+00:00", "meta": {"OBJECT_NAME": "STARLINK-35686", "OBJECT_ID": "2025-257AD", "EPOCH": "2025-12-08T07:25:15.151296", "MEAN_MOTION": 15.43091192, "ECCENTRICITY": 0.00314652, "INCLINATION": 53.1633, "RA_OF_ASC_NODE": 284.9532, "ARG_OF_PERICENTER": 42.0093, "MEAN_ANOMALY": 318.3318, "EPHEMERIS_TYPE": 0, "CLASSIFICATION_TYPE": "U", "NORAD_CAT_ID": 66407, "ELEMENT_SET_NO": 999, "REV_AT_EPOCH": 569, "BSTAR": 0.0014105162, "MEAN_MOTION_DOT": 0.00064581, "MEAN_MOTION_DDOT": 0}, "tle": {"line1": "1 66407U 25257AD  25342.30920314  .00064581  00000+0  14105-2 0  9998", "line2": "2 66407  53.1633 284.9532 0031465  42.0093 318.3318 15.43091192  5698"}}, "geometry": {"type": "Point", "coordinates": [-46.670339475221056, 33.41448005151606]}}, {"type": "Feature", "properties": {"norad_id": 66408, "name": "STARLINK-35679", "group": "last-30-days", "lat": 38.57918561661845, "lon": -39.600557011828435, "alt_km": 418.1835530077433, "timestamp": "2025-12-08T13:49:30.575420+00:00", "meta": {"OBJECT_NAME": "STARLINK-35679", "OBJECT_ID": "2025-257AE", "EPOCH": "2025-12-08T07:24:09.418176", "MEAN_MOTION": 15.47217594, "ECCENTRICITY": 0.00091548, "INCLINATION": 53.1607, "RA_OF_ASC_NODE": 284.9457, "ARG_OF_PERICENTER": 110.4813, "MEAN_ANOMALY": 249.7179, "EPHEMERIS_TYPE": 0, "CLASSIFICATION_TYPE": "U", "NORAD_CAT_ID": 66408, "ELEMENT_SET_NO": 999, "REV_AT_EPOCH": 569, "BSTAR": -0.018959581, "MEAN_MOTION_DOT": -0.00905137, "MEAN_MOTION_DDOT": 0}, "tle": {"line1": "1 66408U 25257AE  25342.30844234 -.00905137  00000+0 -18960-1 0  9990", "line2": "2 66408  53.1607 284.9457 0009154 110.4813 249.7179 15.47217594  5698"}}, "geometry": {"type": "Point", "coordinates": [-39.600557011828435, 38.57918561661845]}}, {"type": "Feature", "properties": {"norad_id": 66409, "name": "CHUTIAN-2 A", "group": "last-30-days", "lat": -46.70801669234642, "lon": 56.300276702107716, "alt_km": 737.7603482890254, "timestamp": "2025-12-08T13:49:30.575431+00:00", "meta": {"OBJECT_NAME": "CHUTIAN-2 A", "OBJECT_ID": "2025-256A", "EPOCH": "2025-12-08T07:25:07.492800", "MEAN_MOTION": 14.49933527, "ECCENTRICITY": 0.00134754, "INCLINATION": 98.2776, "RA_OF_ASC_NODE": 47.1486, "ARG_OF_PERICENTER": 191.1562, "MEAN_ANOMALY": 168.9336, "EPHEMERIS_TYPE": 0, "CLASSIFICATION_TYPE": "U", "NORAD_CAT_ID": 66409, "ELEMENT_SET_NO": 999, "REV_AT_EPOCH": 423, "BSTAR": 0.00035151873, "MEAN_MOTION_DOT": 1.317e-05, "MEAN_MOTION_DDOT": 0}, "tle": {"line1": "1 66409U 25256A   25342.30911450  .00001317  00000+0  35152-3 0  9994", "line2": "2 66409  98.2776  47.1486 0013475 191.1562 168.9336 14.49933527  4233"}}, "geometry": {"type": "Point", "coordinates": [56.300276702107716, -46.70801669234642]}}, {"type": "Feature", "properties": {"norad_id": 66410, "name": "CHUTIAN-2 B", "group": "last-30-days", "lat": 32.86639885368575, "lon": 42.05582200087045, "alt_km": 729.4057100580321, "timestamp": "2025-12-08T13:49:30.575441+00:00", "meta": {"OBJECT_NAME": "CHUTIAN-2 B", "OBJECT_ID": "2025-256B", "EPOCH": "2025-12-08T03:44:31.405920", "MEAN_MOTION": 14.51016669, "ECCENTRICITY": 0.00135559, "INCLINATION": 98.28, "RA_OF_ASC_NODE": 47.0411, "ARG_OF_PERICENTER": 195.264, "MEAN_ANOMALY": 164.8147, "EPHEMERIS_TYPE": 0, "CLASSIFICATION_TYPE": "U", "NORAD_CAT_ID": 66410, "ELEMENT_SET_NO": 999, "REV_AT_EPOCH": 421, "BSTAR": 0.00028173032, "MEAN_MOTION_DOT": 1.072e-05, "MEAN_MOTION_DDOT": 0}, "tle": {"line1": "1 66410U 25256B   25342.15591905  .00001072  00000+0  28173-3 0  9991", "line2": "2 66410  98.2800  47.0411 0013555 195.2640 164.8147 14.51016669  4216"}}, "geometry": {"type": "Point", "coordinates": [42.05582200087045, 32.86639885368575]}}, {"type": "Feature", "properties": {"norad_id": 66411, "name": "ZK-1A R/B", "group": "last-30-days", "lat": -40.061068183601115, "lon": 57.12855984175023, "alt_km": 487.20293582895465, "timestamp": "2025-12-08T13:49:30.575452+00:00", "meta": {"OBJECT_NAME": "ZK-1A R/B", "OBJECT_ID": "2025-256C", "EPOCH": "2025-12-08T04:24:35.439264", "MEAN_MOTION": 15.0182211, "ECCENTRICITY": 0.02287683, "INCLINATION": 98.3227, "RA_OF_ASC_NODE": 49.6365, "ARG_OF_PERICENTER": 260.1899, "MEAN_ANOMALY": 97.3425, "EPHEMERIS_TYPE": 0, "CLASSIFICATION_TYPE": "U", "NORAD_CAT_ID": 66411, "ELEMENT_SET_NO": 999, "REV_AT_EPOCH": 436, "BSTAR": 0.00077387769, "MEAN_MOTION_DOT": 0.00017808, "MEAN_MOTION_DDOT": 0}, "tle": {"line1": "1 66411U 25256C   25342.18374351  .00017808  00000+0  77388-3 0  9995", "line2": "2 66411  98.3227  49.6365 0228768 260.1899  97.3425 15.01822110  4366"}}, "geometry": {"type": "Point", "coordinates": [57.12855984175023, -40.061068183601115]}}, {"type": "Feature", "properties": {"norad_id": 66412, "name": "HULIANWANG DIGUI 13A", "group": "last-30-days", "lat": 20.29465097006028, "lon": -62.364024769944194, "alt_km": 815.9342611750653, "timestamp": "2025-12-08T13:49:30.575464+00:00", "meta": {"OBJECT_NAME": "HULIANWANG DIGUI 13A", "OBJECT_ID": "2025-258A", "EPOCH": "2025-12-08T00:11:39.681024", "MEAN_MOTION": 14.20757093, "ECCENTRICITY": 0.00085136, "INCLINATION": 50.0048, "RA_OF_ASC_NODE": 281.9293, "ARG_OF_PERICENTER": 341.2145, "MEAN_ANOMALY": 18.8451, "EPHEMERIS_TYPE": 0, "CLASSIFICATION_TYPE": "U", "NORAD_CAT_ID": 66412, "ELEMENT_SET_NO": 999, "REV_AT_EPOCH": 398, "BSTAR": 0.00029140461, "MEAN_MOTION_DOT": 4.75e-06, "MEAN_MOTION_DDOT": 0}, "tle": {"line1": "1 66412U 25258A   25342.00809816  .00000475  00000+0  29140-3 0  9993", "line2": "2 66412  50.0048 281.9293 0008513 341.2145  18.8451 14.20757093  3984"}}, "geometry": {"type": "Point", "coordinates": [-62.364024769944194, 20.29465097006028]}}, {"type": "Feature", "properties": {"norad_id": 66413, "name": "HULIANWANG DIGUI 13B", "group": "last-30-days", "lat": -15.72692217422958, "lon": -94.05430815332231, "alt_km": 822.6134663103157, "timestamp": "2025-12-08T13:49:30.575477+00:00", "meta": {"OBJECT_NAME": "HULIANWANG DIGUI 13B", "OBJECT_ID": "2025-258B", "EPOCH": "2025-12-08T02:05:57.458112", "MEAN_MOTION": 14.19998456, "ECCENTRICITY": 0.00070509, "INCLINATION": 50.0003, "RA_OF_ASC_NODE": 281.6665, "ARG_OF_PERICENTER": 340.2899, "MEAN_ANOMALY": 19.7739, "EPHEMERIS_TYPE": 0, "CLASSIFICATION_TYPE": "U", "NORAD_CAT_ID": 66413, "ELEMENT_SET_NO": 999, "REV_AT_EPOCH": 399, "BSTAR": 0.00045858868, "MEAN_MOTION_DOT": 8.24e-06, "MEAN_MOTION_DDOT": 0}, "tle": {"line1": "1 66413U 25258B   25342.08747058  .00000824  00000+0  45859-3 0  9994", "line2": "2 66413  50.0003 281.6665 0007050 340.2899  19.7739 14.19998456  3994"}}, "geometry": {"type": "Point", "coordinates": [-94.05430815332231, -15.72692217422958]}}, {"type": "Feature", "properties": {"norad_id": 66414, "name": "HULIANWANG DIGUI 13C", "group": "last-30-days", "lat": -1.6750141144971362, "lon": -81.79540718436684, "alt_km": 820.0283164682869, "timestamp": "2025-12-08T13:49:30.575488+00:00", "meta": {"OBJECT_NAME": "HULIANWANG DIGUI 13C", "OBJECT_ID": "2025-258C", "EPOCH": "2025-12-08T02:00:53.483040", "MEAN_MOTION": 14.20292388, "ECCENTRICITY": 0.0007624, "INCLINATION": 50.0035, "RA_OF_ASC_NODE": 281.6716, "ARG_OF_PERICENTER": 333.8102, "MEAN_ANOMALY": 26.2423, "EPHEMERIS_TYPE": 0, "CLASSIFICATION_TYPE": "U", "NORAD_CAT_ID": 66414, "ELEMENT_SET_NO": 999, "REV_AT_EPOCH": 399, "BSTAR": 0.0004502369, "MEAN_MOTION_DOT": 8.11e-06, "MEAN_MOTION_DDOT": 0}, "tle": {"line1": "1 66414U 25258C   25342.08395235  .00000811  00000+0  45024-3 0  9991", "line2": "2 66414  50.0035 281.6716 0007624 333.8102  26.2423 14.20292388  3995"}}, "geometry": {"type": "Point", "coordinates": [-81.79540718436684, -1.6750141144971362]}}, {"type": "Feature", "properties": {"norad_id": 66415, "name": "HULIANWANG DIGUI 13D", "group": "last-30-days", "lat": 27.296577709644684, "lon": -54.80192350309156, "alt_km": 814.2105571205002, "timestamp": "2025-12-08T13:49:30.575499+00:00", "meta": {"OBJECT_NAME": "HULIANWANG DIGUI 13D", "OBJECT_ID": "2025-258D", "EPOCH": "2025-12-08T00:09:03.445632", "MEAN_MOTION": 14.21036271, "ECCENTRICITY": 0.00088568, "INCLINATION": 50.0085, "RA_OF_ASC_NODE": 281.917, "ARG_OF_PERICENTER": 344.803, "MEAN_ANOMALY": 15.2614, "EPHEMERIS_TYPE": 0, "CLASSIFICATION_TYPE": "U", "NORAD_CAT_ID": 66415, "ELEMENT_SET_NO": 999, "REV_AT_EPOCH": 398, "BSTAR": 0.00027618013, "MEAN_MOTION_DOT": 4.45e-06, "MEAN_MOTION_DDOT": 0}, "tle": {"line1": "1 66415U 25258D   25342.00628988  .00000445  00000+0  27618-3 0  9990", "line2": "2 66415  50.0085 281.9170 0008856 344.8030  15.2614 14.21036271  3985"}}, "geometry": {"type": "Point", "coordinates": [-54.80192350309156, 27.296577709644684]}}]}